[{"OBJECT_NAME":"STARLINK-31127","OBJECT_ID":"2024-011A","EPOCH":"2025-10-28T04:35:12.491520","MEAN_MOTION":15.30194621,"ECCENTRICITY":0.00013249,"INCLINATION":53.1596,"RA_OF_ASC_NODE":269.1568,"ARG_OF_PERICENTER":81.7248,"MEAN_ANOMALY":278.3903,"EPHEMERIS_TYPE":0,"CLASSIFICATION_TYPE":"U","NORAD_CAT_ID":58765,"ELEMENT_SET_NO":999,"REV_AT_EPOCH":9998,"BSTAR":5.8433062e-5,"MEAN_MOTION_DOT":1.371e-5,"MEAN_MOTION_DDOT":0},{"OBJECT_NAME":"STARLINK-31114","OBJECT_ID":"2024-011B","EPOCH":"2025-10-28T04:48:07.512480","MEAN_MOTION":15.30189785,"ECCENTRICITY":0.00013404,"INCLINATION":53.1597,"RA_OF_ASC_NODE":267.1058,"ARG_OF_PERICENTER":99.8456,"MEAN_ANOMALY":260.2696,"EPHEMERIS_TYPE":0,"CLASSIFICATION_TYPE":"U","NORAD_CAT_ID":58766,"ELEMENT_SET_NO":999,"REV_AT_EPOCH":10001,"BSTAR":0.00011014291,"MEAN_MOTION_DOT":2.903e-5,"MEAN_MOTION_DDOT":0},{"OBJECT_NAME":"STARLINK-31140","OBJECT_ID":"2024-011C","EPOCH":"2025-10-28T04:26:05.400672","MEAN_MOTION":15.30218602,"ECCENTRICITY":0.00015147,"INCLINATION":53.1608,"RA_OF_ASC_NODE":269.1184,"ARG_OF_PERICENTER":94.6147,"MEAN_ANOMALY":265.5027,"EPHEMERIS_TYPE":0,"CLASSIFICATION_TYPE":"U","NORAD_CAT_ID":58767,"ELEMENT_SET_NO":999,"REV_AT_EPOCH":9998,"BSTAR":0.00036476706,"MEAN_MOTION_DOT":0.00010466,"MEAN_MOTION_DDOT":0},{"OBJECT_NAME":"STARLINK-31145","OBJECT_ID":"2024-011D","EPOCH":"2025-10-29T05:14:48.926112","MEAN_MOTION":15.24182129,"ECCENTRICITY":0.000547,"INCLINATION":53.1514,"RA_OF_ASC_NODE":272.6235,"ARG_OF_PERICENTER":102.3114,"MEAN_ANOMALY":257.8497,"EPHEMERIS_TYPE":0,"CLASSIFICATION_TYPE":"U","NORAD_CAT_ID":58768,"ELEMENT_SET_NO":999,"REV_AT_EPOCH":10002,"BSTAR":0.0052539,"MEAN_MOTION_DOT":0.0013165,"MEAN_MOTION_DDOT":0},{"OBJECT_NAME":"STARLINK-31146","OBJECT_ID":"2024-011E","EPOCH":"2025-10-28T04:21:31.863456","MEAN_MOTION":15.30195213,"ECCENTRICITY":0.00014588,"INCLINATION":53.1606,"RA_OF_ASC_NODE":269.0976,"ARG_OF_PERICENTER":100.5184,"MEAN_ANOMALY":259.5982,"EPHEMERIS_TYPE":0,"CLASSIFICATION_TYPE":"U","NORAD_CAT_ID":58769,"ELEMENT_SET_NO":999,"REV_AT_EPOCH":9998,"BSTAR":3.9316999e-5,"MEAN_MOTION_DOT":8.05e-6,"MEAN_MOTION_DDOT":0},{"OBJECT_NAME":"STARLINK-31143","OBJECT_ID":"2024-011F","EPOCH":"2025-10-29T05:21:45.608256","MEAN_MOTION":15.30242577,"ECCENTRICITY":0.0001508,"INCLINATION":53.1611,"RA_OF_ASC_NODE":264.2239,"ARG_OF_PERICENTER":92.5236,"MEAN_ANOMALY":267.5938,"EPHEMERIS_TYPE":0,"CLASSIFICATION_TYPE":"U","NORAD_CAT_ID":58770,"ELEMENT_SET_NO":999,"REV_AT_EPOCH":10014,"BSTAR":0.00025064,"MEAN_MOTION_DOT":7.081e-5,"MEAN_MOTION_DDOT":0},{"OBJECT_NAME":"STARLINK-31135","OBJECT_ID":"2024-011G","EPOCH":"2025-10-28T04:32:56.031360","MEAN_MOTION":15.30196128,"ECCENTRICITY":0.00013571,"INCLINATION":53.1583,"RA_OF_ASC_NODE":267.0376,"ARG_OF_PERICENTER":88.6439,"MEAN_ANOMALY":271.4717,"EPHEMERIS_TYPE":0,"CLASSIFICATION_TYPE":"U","NORAD_CAT_ID":58771,"ELEMENT_SET_NO":999,"REV_AT_EPOCH":10001,"BSTAR":0.00010554577,"MEAN_MOTION_DOT":2.768e-5,"MEAN_MOTION_DDOT":0},{"OBJECT_NAME":"STARLINK-31136","OBJECT_ID":"2024-011H","EPOCH":"2025-10-28T04:30:38.992320","MEAN_MOTION":15.30193166,"ECCENTRICITY":0.00013812,"INCLINATION":53.1605,"RA_OF_ASC_NODE":269.1328,"ARG_OF_PERICENTER":90.8634,"MEAN_ANOMALY":269.2525,"EPHEMERIS_TYPE":0,"CLASSIFICATION_TYPE":"U","NORAD_CAT_ID":58772,"ELEMENT_SET_NO":999,"REV_AT_EPOCH":9997,"BSTAR":3.7140023e-5,"MEAN_MOTION_DOT":7.41e-6,"MEAN_MOTION_DDOT":0},{"OBJECT_NAME":"STARLINK-31073","OBJECT_ID":"2024-011J","EPOCH":"2025-10-28T04:39:46.838304","MEAN_MOTION":15.30176226,"ECCENTRICITY":0.00013295,"INCLINATION":53.1593,"RA_OF_ASC_NODE":269.1752,"ARG_OF_PERICENTER":87.057,"MEAN_ANOMALY":273.0582,"EPHEMERIS_TYPE":0,"CLASSIFICATION_TYPE":"U","NORAD_CAT_ID":58773,"ELEMENT_SET_NO":999,"REV_AT_EPOCH":9998,"BSTAR":-5.1293967e-5,"MEAN_MOTION_DOT":-1.877e-5,"MEAN_MOTION_DDOT":0},{"OBJECT_NAME":"STARLINK-31122","OBJECT_ID":"2024-011K","EPOCH":"2025-10-29T04:19:41.147040","MEAN_MOTION":15.30197282,"ECCENTRICITY":0.0001151,"INCLINATION":53.1582,"RA_OF_ASC_NODE":264.6582,"ARG_OF_PERICENTER":84.9201,"MEAN_ANOMALY":275.1931,"EPHEMERIS_TYPE":0,"CLASSIFICATION_TYPE":"U","NORAD_CAT_ID":58774,"ELEMENT_SET_NO":999,"REV_AT_EPOCH":10013,"BSTAR":-8.311e-6,"MEAN_MOTION_DOT":-6.05e-6,"MEAN_MOTION_DDOT":0},{"OBJECT_NAME":"STARLINK-31123","OBJECT_ID":"2024-011L","EPOCH":"2025-10-29T05:14:13.807104","MEAN_MOTION":15.30190074,"ECCENTRICITY":0.0001298,"INCLINATION":53.1609,"RA_OF_ASC_NODE":264.1904,"ARG_OF_PERICENTER":90.4642,"MEAN_ANOMALY":269.6508,"EPHEMERIS_TYPE":0,"CLASSIFICATION_TYPE":"U","NORAD_CAT_ID":58775,"ELEMENT_SET_NO":999,"REV_AT_EPOCH":10014,"BSTAR":2.7771e-5,"MEAN_MOTION_DOT":4.63e-6,"MEAN_MOTION_DDOT":0},{"OBJECT_NAME":"STARLINK-31117","OBJECT_ID":"2024-011M","EPOCH":"2025-10-28T04:59:31.218144","MEAN_MOTION":15.30197433,"ECCENTRICITY":0.00012213,"INCLINATION":53.1594,"RA_OF_ASC_NODE":269.2528,"ARG_OF_PERICENTER":82.9211,"MEAN_ANOMALY":277.1929,"EPHEMERIS_TYPE":0,"CLASSIFICATION_TYPE":"U","NORAD_CAT_ID":58776,"ELEMENT_SET_NO":999,"REV_AT_EPOCH":9998,"BSTAR":3.1615369e-5,"MEAN_MOTION_DOT":5.77e-6,"MEAN_MOTION_DDOT":0},{"OBJECT_NAME":"STARLINK-31132","OBJECT_ID":"2024-011N","EPOCH":"2025-10-29T08:54:34.753248","MEAN_MOTION":15.30189987,"ECCENTRICITY":0.0001323,"INCLINATION":53.1603,"RA_OF_ASC_NODE":173.4985,"ARG_OF_PERICENTER":84.3993,"MEAN_ANOMALY":275.7158,"EPHEMERIS_TYPE":0,"CLASSIFICATION_TYPE":"U","NORAD_CAT_ID":58777,"ELEMENT_SET_NO":999,"REV_AT_EPOCH":10145,"BSTAR":5.5745e-6,"MEAN_MOTION_DOT":-1.94e-6,"MEAN_MOTION_DDOT":0},{"OBJECT_NAME":"STARLINK-31120","OBJECT_ID":"2024-011P","EPOCH":"2025-10-28T03:43:42.891456","MEAN_MOTION":15.3018482,"ECCENTRICITY":0.00014092,"INCLINATION":53.1593,"RA_OF_ASC_NODE":269.6314,"ARG_OF_PERICENTER":82.4297,"MEAN_ANOMALY":277.6864,"EPHEMERIS_TYPE":0,"CLASSIFICATION_TYPE":"U","NORAD_CAT_ID":58778,"ELEMENT_SET_NO":999,"REV_AT_EPOCH":9997,"BSTAR":1.3449505e-5,"MEAN_MOTION_DOT":3.9e-7,"MEAN_MOTION_DDOT":0},{"OBJECT_NAME":"STARLINK-31142","OBJECT_ID":"2024-011Q","EPOCH":"2025-10-28T04:56:28.610016","MEAN_MOTION":15.3020321,"ECCENTRICITY":0.00012396,"INCLINATION":53.1601,"RA_OF_ASC_NODE":269.2397,"ARG_OF_PERICENTER":90.7877,"MEAN_ANOMALY":269.3265,"EPHEMERIS_TYPE":0,"CLASSIFICATION_TYPE":"U","NORAD_CAT_ID":58779,"ELEMENT_SET_NO":999,"REV_AT_EPOCH":9998,"BSTAR":-2.2802122e-5,"MEAN_MOTION_DOT":-1.034e-5,"MEAN_MOTION_DDOT":0},{"OBJECT_NAME":"STARLINK-31099","OBJECT_ID":"2024-011S","EPOCH":"2025-10-28T04:51:55.293120","MEAN_MOTION":15.30195519,"ECCENTRICITY":0.00012538,"INCLINATION":53.1593,"RA_OF_ASC_NODE":269.219,"ARG_OF_PERICENTER":82.0869,"MEAN_ANOMALY":278.0274,"EPHEMERIS_TYPE":0,"CLASSIFICATION_TYPE":"U","NORAD_CAT_ID":58781,"ELEMENT_SET_NO":999,"REV_AT_EPOCH":9998,"BSTAR":4.7143385e-5,"MEAN_MOTION_DOT":1.037e-5,"MEAN_MOTION_DDOT":0}]
