STARLINK-31127          
1 58765U 24011A   25301.19111680  .00001371  00000+0  58433-4 0  9995
2 58765  53.1596 269.1568 0001324  81.7248 278.3903 15.30194621 99988
STARLINK-31114          
1 58766U 24011B   25301.20008695  .00002903  00000+0  11014-3 0  9994
2 58766  53.1597 267.1058 0001340  99.8456 260.2696 15.30189785100012
STARLINK-31140          
1 58767U 24011C   25301.18478473  .00010466  00000+0  36477-3 0  9990
2 58767  53.1608 269.1184 0001514  94.6147 265.5027 15.30218602 99981
STARLINK-31145          
1 58768U 24011D   25302.21862183  .00131650  00000+0  52539-2 0  9996
2 58768  53.1514 272.6235 0005470 102.3114 257.8497 15.24182129100020
STARLINK-31146          
1 58769U 24011E   25301.18161879  .00000805  00000+0  39317-4 0  9994
2 58769  53.1606 269.0976 0001458 100.5184 259.5982 15.30195213 99989
STARLINK-31143          
1 58770U 24011F   25302.22344454  .00007081  00000+0  25064-3 0  9990
2 58770  53.1611 264.2239 0001508  92.5236 267.5938 15.30242577100147
STARLINK-31135          
1 58771U 24011G   25301.18953740  .00002768  00000+0  10555-3 0  9995
2 58771  53.1583 267.0376 0001357  88.6439 271.4717 15.30196128100017
STARLINK-31136          
1 58772U 24011H   25301.18795130  .00000741  00000+0  37140-4 0  9992
2 58772  53.1605 269.1328 0001381  90.8634 269.2525 15.30193166 99975
STARLINK-31073          
1 58773U 24011J   25301.19429211 -.00001877  00000+0 -51294-4 0  9997
2 58773  53.1593 269.1752 0001329  87.0570 273.0582 15.30176226 99987
STARLINK-31122          
1 58774U 24011K   25302.18033735 -.00000605  00000+0 -83110-5 0  9991
2 58774  53.1582 264.6582 0001151  84.9201 275.1931 15.30197282100133
STARLINK-31123          
1 58775U 24011L   25302.21821536  .00000463  00000+0  27771-4 0  9990
2 58775  53.1609 264.1904 0001298  90.4642 269.6508 15.30190074100141
STARLINK-31117          
1 58776U 24011M   25301.20800021  .00000577  00000+0  31615-4 0  9993
2 58776  53.1594 269.2528 0001221  82.9211 277.1929 15.30197433 99983
STARLINK-31132          
1 58777U 24011N   25302.37123557 -.00000194  00000+0  55745-5 0  9992
2 58777  53.1603 173.4985 0001323  84.3993 275.7158 15.30189987101453
STARLINK-31120          
1 58778U 24011P   25301.15535754  .00000039  00000+0  13450-4 0  9997
2 58778  53.1593 269.6314 0001409  82.4297 277.6864 15.30184820 99976
STARLINK-31142          
1 58779U 24011Q   25301.20588669 -.00001034  00000+0 -22802-4 0  9996
2 58779  53.1601 269.2397 0001239  90.7877 269.3265 15.30203210 99980
STARLINK-31099          
1 58781U 24011S   25301.20272330  .00001037  00000+0  47143-4 0  9990
2 58781  53.1593 269.2190 0001253  82.0869 278.0274 15.30195519 99984
